KUIPER-00203            
1 67773U 26030K   26064.66667824 -.01369135  00000+0 -62835-1 0  9998
2 67773  51.8820 239.0285 0011541  51.4088  78.6727 15.23098075  3036
KUIPER-00205            
1 67774U 26030L   26064.71941756  .00031667  00000+0  89064-3 0  9992
2 67774  51.8812 238.2104 0003012  10.1843 349.9204 15.36210795  4487
KUIPER-00208            
1 67775U 26030M   26064.75905675  .00037381  00000+0  11804-2 0  9992
2 67775  51.8832 238.4719 0014598  49.5668 310.6588 15.32378848  4486
KUIPER-00209            
1 67776U 26030N   26064.63417175 -.00060155  00000+0 -20050-2 0  9993
2 67776  51.8818 239.1302 0013085  56.1169 304.1058 15.30557280  4462
KUIPER-00213            
1 67777U 26030P   26064.75969397  .00022891  00000+0  72412-3 0  9998
2 67777  51.8805 238.4668 0014887  53.4630 306.7723 15.32579732  4487
KUIPER-00214            
1 67778U 26030Q   26064.71295189  .00025081  00000+0  70055-3 0  9991
2 67778  51.8838 238.1750 0000473 209.7013 150.3946 15.36554804  4487
KUIPER-00215            
1 67779U 26030R   26064.74410568  .00024849  00000+0  74525-3 0  9992
2 67779  51.8844 238.3760 0010059  49.1057 311.0799 15.34282976  4481
KUIPER-00218            
1 67780U 26030S   26064.73438055  .00034166  00000+0  99689-3 0  9995
2 67780  51.8838 238.3119 0006696  39.6512 320.4963 15.35006233  4484
KUIPER-00220            
1 67781U 26030T   26064.74057620  .00024547  00000+0  72982-3 0  9991
2 67781  51.8815 238.3450 0008351  44.9688 315.1973 15.34579695  4489
KUIPER-00222            
1 67782U 26030U   26064.69814470  .00012303  00000+0  39689-3 0  9994
2 67782  51.8796 238.8016 0017132  51.8883 308.3643 15.32411423  4471
KUIPER-00223            
1 67783U 26030V   26064.74746830 -.00003315  00000+0 -87492-4 0  9996
2 67783  51.8830 238.3941 0012219  48.0639 312.1386 15.34030274  4482
KUIPER-00225            
1 67784U 26030W   26064.72527745  .00036639  00000+0  10439-2 0  9995
2 67784  51.8814 238.2483 0004338  27.9580 332.1639 15.35730206  4485
KUIPER-00226            
1 67785U 26030X   26064.70961838  .00004842  00000+0  16953-3 0  9998
2 67785  51.8805 238.8764 0019802  62.1997 298.0991 15.31206757  4474
KUIPER-00259            
1 67786U 26030Y   26064.73643879  .00034647  00000+0  10136-2 0  9996
2 67786  51.8818 238.3194 0008398  38.1041 322.0537 15.34904919  4485
KUIPER-00260            
1 67787U 26030Z   26064.71749527  .00026069  00000+0  73391-3 0  9994
2 67787  51.8796 238.1961 0001079  53.7070 306.4016 15.36286654  4394
KUIPER-00262            
1 67788U 26030AA  26064.71391162  .00027493  00000+0  76545-3 0  9999
2 67788  51.8807 238.1759 0000328 124.2316 235.8702 15.36603235  4481
KUIPER-00266            
1 67789U 26030AB  26064.71426240  .00001906  00000+0  74716-4 0  9996
2 67789  51.8806 238.9040 0022553  61.7246 298.6010 15.30933202  4475
